OBJECT_NAME,OBJECT_ID,EPOCH,MEAN_MOTION,ECCENTRICITY,INCLINATION,RA_OF_ASC_NODE,ARG_OF_PERICENTER,MEAN_ANOMALY,EPHEMERIS_TYPE,CLASSIFICATION_TYPE,NORAD_CAT_ID,ELEMENT_SET_NO,REV_AT_EPOCH,BSTAR,MEAN_MOTION_DOT,MEAN_MOTION_DDOT
STARLINK-4724,2022-107C,2026-06-11T08:07:34.220928,15.08838027,.000111,53.1607,168.5546,93.1961,266.9157,0,U,53702,999,20923,.85487E-4,.1073E-4,0
STARLINK-4731,2022-107D,2026-06-11T07:52:16.885344,15.08832806,.0001252,53.1610,183.4453,79.4320,280.6813,0,U,53703,999,20899,.53618E-4,.565E-5,0
STARLINK-4714,2022-107E,2026-06-11T09:01:16.197024,15.08831555,.0001175,53.1590,183.7412,87.5513,272.5613,0,U,53704,999,20883,.9413E-5,-.138E-5,0
STARLINK-4717,2022-107F,2026-06-11T08:55:57.942624,15.08829656,.0001278,53.1597,183.7199,86.1662,273.9475,0,U,53705,999,20899,.1694E-4,-.18E-6,0
STARLINK-4716,2022-107G,2026-06-11T08:34:44.137920,15.08830190,.0001178,53.1591,183.6300,82.4657,277.6468,0,U,53706,999,20899,.19514E-4,.23E-6,0
STARLINK-4667,2022-107H,2026-06-11T06:48:04.751712,15.08835060,.0001192,53.1601,168.9155,83.8511,276.2617,0,U,53707,999,20919,-.9852E-5,-.445E-5,0
STARLINK-4694,2022-107J,2026-06-11T08:02:14.769024,15.08832356,.0001156,53.1603,168.5360,81.3432,278.7690,0,U,53708,999,20920,.33209E-4,.241E-5,0
STARLINK-4685,2022-107K,2026-06-11T09:19:04.727424,15.08828331,.000134,53.1596,188.1238,69.4236,290.6899,0,U,53709,999,20862,.68947E-4,.809E-5,0
STARLINK-4627,2022-107M,2026-06-11T07:59:34.799424,15.08836598,.0001228,53.1602,188.4818,87.5642,272.5490,0,U,53711,999,20861,.62272E-4,.703E-5,0
STARLINK-4683,2022-107N,2026-06-11T08:57:49.988736,15.08828327,.0001227,53.1583,188.0424,85.1172,274.9959,0,U,53712,999,20864,.16958E-4,-.18E-6,0
STARLINK-4686,2022-107R,2026-06-11T09:26:20.960160,15.08828594,.0000819,53.1585,193.1234,65.0862,295.0215,0,U,53715,999,20856,.53348E-5,-.203E-5,0
STARLINK-4699,2022-107S,2026-06-11T09:21:02.469888,15.08828491,.0001182,53.1591,193.1007,84.1703,275.9423,0,U,53716,999,20855,.13225E-4,-.77E-6,0
STARLINK-4695,2022-107U,2026-06-11T09:06:37.079712,15.08830580,.0001106,53.1585,193.7328,79.2328,280.8788,0,U,53718,999,20854,.25597E-4,.119E-5,0
STARLINK-4644,2022-107V,2026-06-11T07:33:44.505216,15.08821540,.0001046,53.1590,163.3834,89.7858,270.3253,0,U,53719,999,20897,-.25734E-4,-.697E-5,0
STARLINK-4642,2022-107W,2026-06-11T09:31:37.917696,15.08845853,.0001132,53.1594,193.1461,74.2822,285.8295,0,U,53720,999,20856,.14476E-3,.2017E-4,0
STARLINK-4707,2022-107X,2026-06-11T09:42:15.579936,15.08837562,.0001152,53.1594,193.1941,86.9084,273.2040,0,U,53721,999,20856,-.13329E-3,-.2408E-4,0
STARLINK-4700,2022-107Y,2026-06-11T08:17:29.211936,15.08833194,.0001247,53.1616,193.5326,86.2339,273.8795,0,U,53722,999,20854,.41969E-4,.38E-5,0
STARLINK-4705,2022-107Z,2026-06-11T09:15:43.960608,15.08830300,.0001143,53.1586,193.0850,84.3603,275.7518,0,U,53723,999,20870,.24805E-4,.107E-5,0
STARLINK-4663,2022-107AA,2026-06-11T09:36:56.692224,15.08838226,.000138,53.1612,193.1723,83.3869,276.7280,0,U,53724,999,20856,.59952E-4,.666E-5,0
STARLINK-4697,2022-107AC,2026-06-11T09:47:35.520000,15.08836407,.0001176,53.1604,193.2158,92.2851,267.8275,0,U,53726,999,20856,.74148E-4,.892E-5,0
STARLINK-4701,2022-107AD,2026-06-11T08:28:08.895072,15.08807311,.0001261,53.1591,193.5812,95.9429,264.1706,0,U,53727,999,20869,-.18359E-3,-.3206E-4,0
STARLINK-4640,2022-107AE,2026-06-11T08:22:47.640000,15.08832636,.0001203,53.1608,193.5590,87.1894,272.9235,0,U,53728,999,20869,.17664E-4,-.7E-7,0
STARLINK-4651,2022-107AF,2026-06-11T08:44:00.718080,15.08835677,.0001187,53.1608,193.6514,83.5438,276.5689,0,U,53729,999,20872,.10814E-4,-.116E-5,0
STARLINK-4641,2022-107AG,2026-06-11T08:33:25.651296,15.08829734,.0001261,53.1608,193.6050,79.8878,280.2256,0,U,53730,999,20869,.67059E-4,.779E-5,0
STARLINK-4636,2022-107AH,2026-06-11T09:00:48.212064,15.16411466,.0005623,53.2123,189.5828,57.6729,302.4810,0,U,53731,999,20878,.96407E-3,.18701E-3,0
STARLINK-4661,2022-107AJ,2026-06-11T08:40:05.336832,15.08834960,.000209,53.1615,193.6341,84.8425,275.2805,0,U,53732,999,20869,.13771E-4,-.69E-6,0
STARLINK-4574,2022-107AK,2026-06-11T08:59:55.982400,15.08832870,.0001132,53.1599,193.7203,77.4321,282.6797,0,U,53733,999,20872,.25065E-4,.111E-5,0
STARLINK-4616,2022-107AL,2026-06-11T08:38:42.605376,15.08832188,.0001238,53.1609,193.6292,88.8525,271.2608,0,U,53734,999,20872,.43774E-7,-.287E-5,0
STARLINK-4618,2022-107AM,2026-06-11T08:05:32.788320,15.08833446,.0001199,53.1588,203.4737,69.1184,290.9936,0,U,53735,999,20858,-.3793E-4,-.891E-5,0
STARLINK-4652,2022-107AN,2026-06-11T08:54:37.986336,15.08835339,.0001206,53.1594,193.6975,84.8272,275.2857,0,U,53736,999,20872,.59128E-5,-.194E-5,0
