STARLINK-4724           
1 53702U 22107C   26162.33859052  .00001073  00000+0  85487-4 0  9997
2 53702  53.1607 168.5546 0001110  93.1961 266.9157 15.08838027209232
STARLINK-4731           
1 53703U 22107D   26162.32797321  .00000565  00000+0  53618-4 0  9993
2 53703  53.1610 183.4453 0001252  79.4320 280.6813 15.08832806208996
STARLINK-4714           
1 53704U 22107E   26162.37588191 -.00000138  00000+0  94130-5 0  9994
2 53704  53.1590 183.7412 0001175  87.5513 272.5613 15.08831555208831
STARLINK-4717           
1 53705U 22107F   26162.37219841 -.00000018  00000+0  16940-4 0  9997
2 53705  53.1597 183.7199 0001278  86.1662 273.9475 15.08829656208992
STARLINK-4716           
1 53706U 22107G   26162.35745530  .00000023  00000+0  19514-4 0  9990
2 53706  53.1591 183.6300 0001178  82.4657 277.6468 15.08830190208990
STARLINK-4667           
1 53707U 22107H   26162.28338833 -.00000445  00000+0 -98520-5 0  9992
2 53707  53.1601 168.9155 0001192  83.8511 276.2617 15.08835060209192
STARLINK-4694           
1 53708U 22107J   26162.33489316  .00000241  00000+0  33209-4 0  9996
2 53708  53.1603 168.5360 0001156  81.3432 278.7690 15.08832356209209
STARLINK-4685           
1 53709U 22107K   26162.38824916  .00000809  00000+0  68947-4 0  9998
2 53709  53.1596 188.1238 0001340  69.4236 290.6899 15.08828331208624
STARLINK-4627           
1 53711U 22107M   26162.33304166  .00000703  00000+0  62272-4 0  9994
2 53711  53.1602 188.4818 0001228  87.5642 272.5490 15.08836598208618
STARLINK-4683           
1 53712U 22107N   26162.37349524 -.00000018  00000+0  16958-4 0  9996
2 53712  53.1583 188.0424 0001227  85.1172 274.9959 15.08828327208647
STARLINK-4686           
1 53715U 22107R   26162.39329815 -.00000203  00000+0  53348-5 0  9993
2 53715  53.1585 193.1234 0000819  65.0862 295.0215 15.08828594208563
STARLINK-4699           
1 53716U 22107S   26162.38961192 -.00000077  00000+0  13225-4 0  9991
2 53716  53.1591 193.1007 0001182  84.1703 275.9423 15.08828491208552
STARLINK-4695           
1 53718U 22107U   26162.37959583  .00000119  00000+0  25597-4 0  9994
2 53718  53.1585 193.7328 0001106  79.2328 280.8788 15.08830580208543
STARLINK-4644           
1 53719U 22107V   26162.31509844 -.00000697  00000+0 -25734-4 0  9996
2 53719  53.1590 163.3834 0001046  89.7858 270.3253 15.08821540208976
STARLINK-4642           
1 53720U 22107W   26162.39696664  .00002017  00000+0  14476-3 0  9999
2 53720  53.1594 193.1461 0001132  74.2822 285.8295 15.08845853208560
STARLINK-4707           
1 53721U 22107X   26162.40434699 -.00002408  00000+0 -13329-3 0  9992
2 53721  53.1594 193.1941 0001152  86.9084 273.2040 15.08837562208563
STARLINK-4700           
1 53722U 22107Y   26162.34547699  .00000380  00000+0  41969-4 0  9998
2 53722  53.1616 193.5326 0001247  86.2339 273.8795 15.08833194208549
STARLINK-4705           
1 53723U 22107Z   26162.38592547  .00000107  00000+0  24805-4 0  9992
2 53723  53.1586 193.0850 0001143  84.3603 275.7518 15.08830300208709
STARLINK-4663           
1 53724U 22107AA  26162.40065616  .00000666  00000+0  59952-4 0  9999
2 53724  53.1612 193.1723 0001380  83.3869 276.7280 15.08838226208562
STARLINK-4697           
1 53726U 22107AC  26162.40805000  .00000892  00000+0  74148-4 0  9995
2 53726  53.1604 193.2158 0001176  92.2851 267.8275 15.08836407208565
STARLINK-4701           
1 53727U 22107AD  26162.35288073 -.00003206  00000+0 -18359-3 0  9990
2 53727  53.1591 193.5812 0001261  95.9429 264.1706 15.08807311208692
STARLINK-4640           
1 53728U 22107AE  26162.34916250 -.00000007  00000+0  17664-4 0  9999
2 53728  53.1608 193.5590 0001203  87.1894 272.9235 15.08832636208692
STARLINK-4651           
1 53729U 22107AF  26162.36389720 -.00000116  00000+0  10814-4 0  9999
2 53729  53.1608 193.6514 0001187  83.5438 276.5689 15.08835677208720
STARLINK-4641           
1 53730U 22107AG  26162.35654689  .00000779  00000+0  67059-4 0  9996
2 53730  53.1608 193.6050 0001261  79.8878 280.2256 15.08829734208691
STARLINK-4636           
1 53731U 22107AH  26162.37555801  .00018701  00000+0  96407-3 0  9997
2 53731  53.2123 189.5828 0005623  57.6729 302.4810 15.16411466208788
STARLINK-4661           
1 53732U 22107AJ  26162.36117288 -.00000069  00000+0  13771-4 0  9993
2 53732  53.1615 193.6341 0002090  84.8425 275.2805 15.08834960208690
STARLINK-4574           
1 53733U 22107AK  26162.37495350  .00000111  00000+0  25065-4 0  9990
2 53733  53.1599 193.7203 0001132  77.4321 282.6797 15.08832870208723
STARLINK-4616           
1 53734U 22107AL  26162.36021534 -.00000287  00000+0  43774-7 0  9994
2 53734  53.1609 193.6292 0001238  88.8525 271.2608 15.08832188208729
STARLINK-4618           
1 53735U 22107AM  26162.33718505 -.00000891  00000+0 -37930-4 0  9999
2 53735  53.1588 203.4737 0001199  69.1184 290.9936 15.08833446208583
STARLINK-4652           
1 53736U 22107AN  26162.37127299 -.00000194  00000+0  59128-5 0  9997
2 53736  53.1594 193.6975 0001206  84.8272 275.2857 15.08835339208723
